[
    {
        "groupName": "Ableworld",
        "address": {
            "line1": "55 Bragg Street",
            "town": "Neahkahnie",
            "postcode": "BB3 2IE"
        }
    },
    {
        "groupName": "Allsop Lettings and Management",
        "address": {
            "line1": "94 Humboldt Street",
            "town": "Rowe",
            "postcode": "TL1 7ZC"
        }
    },
    {
        "groupName": "Association of Convenience Stores",
        "address": {
            "line1": "81 Erasmus Street",
            "town": "Sandston",
            "postcode": "VS9 4BW"
        }
    },
    {
        "groupName": "Beverage Services",
        "address": {
            "line1": "22 Ebony Court",
            "town": "Efland",
            "postcode": "RV5 3PR"
        }
    },
    {
        "groupName": "Birchgrove",
        "address": {
            "line1": "62 Garden Street",
            "town": "Belfair",
            "postcode": "VU9 7ZC"
        }
    },
    {
        "groupName": "Slumberia",
        "address": {
            "line1": "50 Ridge Boulevard",
            "town": "Boyd",
            "postcode": "II2 3LZ"
        }
    },
    {
        "groupName": "Digitalus",
        "address": {
            "line1": "19 Jamison Lane",
            "town": "Felt",
            "postcode": "FA6 9WI"
        }
    },
    {
        "groupName": "Paragonia",
        "address": {
            "line1": "100 Beverly Road",
            "town": "Bluetown",
            "postcode": "RS9 6NG"
        }
    },
    {
        "groupName": "Isologics",
        "address": {
            "line1": "55 Arlington Place",
            "town": "Westmoreland",
            "postcode": "FO9 4KY"
        }
    },
    {
        "groupName": "Accufarm",
        "address": {
            "line1": "13 Montague Terrace",
            "town": "Unionville",
            "postcode": "HX5 2TT"
        }
    },
    {
        "groupName": "Ultrimax",
        "address": {
            "line1": "43 Vandalia Avenue",
            "town": "Trinway",
            "postcode": "JS5 6XR"
        }
    },
    {
        "groupName": "Gogol",
        "address": {
            "line1": "43 Blake Court",
            "town": "Gilgo",
            "postcode": "JX5 1SB"
        }
    },
    {
        "groupName": "Sureplex",
        "address": {
            "line1": "26 Woods Place",
            "town": "Sunwest",
            "postcode": "IT5 5YJ"
        }
    },
    {
        "groupName": "Maxemia",
        "address": {
            "line1": "16 Rodney Street",
            "town": "Hillsboro",
            "postcode": "SY6 3ZO"
        }
    },
    {
        "groupName": "Emtrac",
        "address": {
            "line1": "75 Jerome Street",
            "town": "Floris",
            "postcode": "NK4 8EU"
        }
    },
    {
        "groupName": "Neteria",
        "address": {
            "line1": "15 Vanderveer Street",
            "town": "Tyhee",
            "postcode": "OR1 5FZ"
        }
    },
    {
        "groupName": "Cincyr",
        "address": {
            "line1": "59 Chester Street",
            "town": "Malott",
            "postcode": "VK0 5RQ"
        }
    },
    {
        "groupName": "Telpod",
        "address": {
            "line1": "24 Sutter Avenue",
            "town": "Hondah",
            "postcode": "XW7 7XN"
        }
    },
    {
        "groupName": "Bizmatic",
        "address": {
            "line1": "30 Devoe Street",
            "town": "Newry",
            "postcode": "NO7 0QS"
        }
    },
    {
        "groupName": "Savvy",
        "address": {
            "line1": "79 Wythe Avenue",
            "town": "Hiwasse",
            "postcode": "QL1 3TB"
        }
    },
    {
        "groupName": "Deviltoe",
        "address": {
            "line1": "11 Minna Street",
            "town": "Munjor",
            "postcode": "UF5 5WM"
        }
    },
    {
        "groupName": "Acumentor",
        "address": {
            "line1": "62 Glen Street",
            "town": "Guthrie",
            "postcode": "EC8 2XX"
        }
    },
    {
        "groupName": "Fleetmix",
        "address": {
            "line1": "55 Jaffray Street",
            "town": "Wikieup",
            "postcode": "QV6 9RA"
        }
    },
    {
        "groupName": "Signidyne",
        "address": {
            "line1": "48 Atkins Avenue",
            "town": "Clara",
            "postcode": "RT4 1DI"
        }
    },
    {
        "groupName": "Bleeko",
        "address": {
            "line1": "74 Cortelyou Road",
            "town": "Libertytown",
            "postcode": "FX2 6CI"
        }
    },
    {
        "groupName": "Roboid",
        "address": {
            "line1": "39 Terrace Place",
            "town": "Dorneyville",
            "postcode": "RQ4 9JJ"
        }
    },
    {
        "groupName": "Polarax",
        "address": {
            "line1": "8 Hendrickson Street",
            "town": "Camas",
            "postcode": "ZU5 8ZN"
        }
    },
    {
        "groupName": "Telequiet",
        "address": {
            "line1": "26 Lawton Street",
            "town": "Chumuckla",
            "postcode": "NM8 1UN"
        }
    },
    {
        "groupName": "Kenegy",
        "address": {
            "line1": "10 Cypress Avenue",
            "town": "Noblestown",
            "postcode": "RD9 5OI"
        }
    },
    {
        "groupName": "Aquasure",
        "address": {
            "line1": "51 Noll Street",
            "town": "Malo",
            "postcode": "HY8 3SM"
        }
    },
    {
        "groupName": "Cofine",
        "address": {
            "line1": "57 Lake Avenue",
            "town": "Chesterfield",
            "postcode": "DS5 9HX"
        }
    },
    {
        "groupName": "Harmoney",
        "address": {
            "line1": "66 Hampton Avenue",
            "town": "Reinerton",
            "postcode": "AJ5 5BD"
        }
    },
    {
        "groupName": "Eternis",
        "address": {
            "line1": "23 Conway Street",
            "town": "Gasquet",
            "postcode": "PB6 4GF"
        }
    },
    {
        "groupName": "Malathion",
        "address": {
            "line1": "46 Pacific Street",
            "town": "Nicholson",
            "postcode": "YC9 8TQ"
        }
    },
    {
        "groupName": "Stucco",
        "address": {
            "line1": "74 Box Street",
            "town": "Belvoir",
            "postcode": "IV4 9SO"
        }
    },
    {
        "groupName": "Isotronic",
        "address": {
            "line1": "49 Monument Walk",
            "town": "Sehili",
            "postcode": "YN2 1AZ"
        }
    },
    {
        "groupName": "Gallaxia",
        "address": {
            "line1": "62 Dare Court",
            "town": "Stockdale",
            "postcode": "IH0 6AN"
        }
    },
    {
        "groupName": "Stelaecor",
        "address": {
            "line1": "40 Veranda Place",
            "town": "Shindler",
            "postcode": "PP1 8YM"
        }
    },
    {
        "groupName": "Metroz",
        "address": {
            "line1": "83 Clarkson Avenue",
            "town": "Detroit",
            "postcode": "DH8 9PE"
        }
    },
    {
        "groupName": "Zillanet",
        "address": {
            "line1": "42 Jerome Avenue",
            "town": "Gilmore",
            "postcode": "FI6 8ZN"
        }
    },
    {
        "groupName": "Hinway",
        "address": {
            "line1": "94 Thames Street",
            "town": "Sparkill",
            "postcode": "TI5 0TT"
        }
    },
    {
        "groupName": "Talkola",
        "address": {
            "line1": "86 Division Avenue",
            "town": "Adamstown",
            "postcode": "JZ7 4GK"
        }
    },
    {
        "groupName": "Zuvy",
        "address": {
            "line1": "38 Railroad Avenue",
            "town": "Shrewsbury",
            "postcode": "GI0 0GT"
        }
    },
    {
        "groupName": "Isosure",
        "address": {
            "line1": "63 Henderson Walk",
            "town": "Idledale",
            "postcode": "SW1 2VD"
        }
    },
    {
        "groupName": "Earthplex",
        "address": {
            "line1": "40 Varick Street",
            "town": "Balm",
            "postcode": "JD9 8WR"
        }
    },
    {
        "groupName": "Zaggle",
        "address": {
            "line1": "33 Howard Place",
            "town": "Tetherow",
            "postcode": "MP2 0RP"
        }
    },
    {
        "groupName": "Aclima",
        "address": {
            "line1": "2 Grafton Street",
            "town": "Cressey",
            "postcode": "DQ9 0SR"
        }
    },
    {
        "groupName": "Aquazure",
        "address": {
            "line1": "48 Emerald Street",
            "town": "Henrietta",
            "postcode": "CV8 4MH"
        }
    },
    {
        "groupName": "Digiprint",
        "address": {
            "line1": "8 Gunnison Court",
            "town": "Cawood",
            "postcode": "SZ8 0SB"
        }
    },
    {
        "groupName": "Zboo",
        "address": {
            "line1": "7 Wolf Place",
            "town": "Coinjock",
            "postcode": "SR2 0BB"
        }
    },
    {
        "groupName": "Xleen",
        "address": {
            "line1": "3 Gem Street",
            "town": "Aurora",
            "postcode": "FW1 1ZR"
        }
    },
    {
        "groupName": "Geofarm",
        "address": {
            "line1": "10 Ludlam Place",
            "town": "Clarktown",
            "postcode": "RI9 4BZ"
        }
    },
    {
        "groupName": "Snacktion",
        "address": {
            "line1": "76 Batchelder Street",
            "town": "Jessie",
            "postcode": "UN4 5IV"
        }
    },
    {
        "groupName": "Liquicom",
        "address": {
            "line1": "73 Gilmore Court",
            "town": "Sabillasville",
            "postcode": "EC1 4GY"
        }
    },
    {
        "groupName": "Zytrac",
        "address": {
            "line1": "34 Ditmars Street",
            "town": "Bison",
            "postcode": "KB2 8BZ"
        }
    },
    {
        "groupName": "Combogene",
        "address": {
            "line1": "37 Haring Street",
            "town": "Keyport",
            "postcode": "XZ0 4DN"
        }
    },
    {
        "groupName": "Bicol",
        "address": {
            "line1": "75 Monroe Place",
            "town": "Eden",
            "postcode": "OK7 0GB"
        }
    },
    {
        "groupName": "Memora",
        "address": {
            "line1": "93 Lyme Avenue",
            "town": "Gardiner",
            "postcode": "FB8 4GJ"
        }
    },
    {
        "groupName": "Zaj",
        "address": {
            "line1": "10 Judge Street",
            "town": "Brule",
            "postcode": "OE9 8YT"
        }
    },
    {
        "groupName": "Zillidium",
        "address": {
            "line1": "79 Rewe Street",
            "town": "Urbana",
            "postcode": "EM4 1YG"
        }
    },
    {
        "groupName": "Geekfarm",
        "address": {
            "line1": "48 Woodruff Avenue",
            "town": "Curtice",
            "postcode": "IA0 4VY"
        }
    },
    {
        "groupName": "Entogrok",
        "address": {
            "line1": "56 Quentin Street",
            "town": "Blende",
            "postcode": "CP8 5QO"
        }
    },
    {
        "groupName": "Empirica",
        "address": {
            "line1": "11 Summit Street",
            "town": "Stagecoach",
            "postcode": "SQ8 3RY"
        }
    },
    {
        "groupName": "Grainspot",
        "address": {
            "line1": "35 Meadow Street",
            "town": "Bend",
            "postcode": "KF2 5PM"
        }
    },
    {
        "groupName": "Vixo",
        "address": {
            "line1": "13 Bridgewater Street",
            "town": "Tooleville",
            "postcode": "MG6 3MS"
        }
    },
    {
        "groupName": "Remold",
        "address": {
            "line1": "17 Canarsie Road",
            "town": "Beechmont",
            "postcode": "KU6 0RK"
        }
    },
    {
        "groupName": "Circum",
        "address": {
            "line1": "84 Ridgecrest Terrace",
            "town": "Grapeview",
            "postcode": "ZO8 9HC"
        }
    },
    {
        "groupName": "Intrawear",
        "address": {
            "line1": "82 Nassau Avenue",
            "town": "Goodville",
            "postcode": "UD7 8OM"
        }
    },
    {
        "groupName": "Magneato",
        "address": {
            "line1": "68 Berry Street",
            "town": "Reno",
            "postcode": "NV0 4PE"
        }
    },
    {
        "groupName": "Zedalis",
        "address": {
            "line1": "25 Havemeyer Street",
            "town": "Ironton",
            "postcode": "BS4 9RN"
        }
    },
    {
        "groupName": "Silodyne",
        "address": {
            "line1": "19 Wilson Avenue",
            "town": "Cornfields",
            "postcode": "NN0 7KS"
        }
    },
    {
        "groupName": "Interloo",
        "address": {
            "line1": "7 Schaefer Street",
            "town": "Bladensburg",
            "postcode": "IA4 1FN"
        }
    },
    {
        "groupName": "Rotodyne",
        "address": {
            "line1": "72 Dwight Street",
            "town": "Virgie",
            "postcode": "UC0 1PL"
        }
    },
    {
        "groupName": "Netagy",
        "address": {
            "line1": "90 Stryker Court",
            "town": "Maybell",
            "postcode": "HR5 4AW"
        }
    },
    {
        "groupName": "Moltonic",
        "address": {
            "line1": "83 Kingsland Avenue",
            "town": "Odessa",
            "postcode": "BY1 7SW"
        }
    },
    {
        "groupName": "Straloy",
        "address": {
            "line1": "98 Orient Avenue",
            "town": "Yorklyn",
            "postcode": "JX4 8UA"
        }
    },
    {
        "groupName": "Noralex",
        "address": {
            "line1": "71 Brevoort Place",
            "town": "Roberts",
            "postcode": "BJ0 4HA"
        }
    },
    {
        "groupName": "Pyramis",
        "address": {
            "line1": "95 Bay Street",
            "town": "Cowiche",
            "postcode": "UW9 1XG"
        }
    },
    {
        "groupName": "Infotrips",
        "address": {
            "line1": "53 Meserole Street",
            "town": "Lowell",
            "postcode": "VZ0 9FC"
        }
    },
    {
        "groupName": "Kidstock",
        "address": {
            "line1": "83 Ocean Parkway",
            "town": "Bayview",
            "postcode": "RY3 4VK"
        }
    }
]