[
    {
    "legalName": "Darwinium",
    "tradingName": "Darwinium",
    "groupName": "",
    "companiesHouseNumber": 18548474,
    "businessArea": "fire-safety",
    "legalEntityType": "cio",
    "address": {
        "line1": "55 Bragg Street",
        "town": "Neahkahnie",
        "postcode": "BB3 2IE"
    }
},
{
    "legalName": "Candecor",
    "tradingName": "Candecor",
    "groupName": "",
    "companiesHouseNumber": 43482407,
    "businessArea": "fire-safety",
    "legalEntityType": "sole-trader",
    "address": {
        "line1": "1 Cass Place",
        "town": "Hardyville",
        "postcode": "IC9 4CM"
    }
},
{
    "legalName": "Daycore",
    "tradingName": "Daycore",
    "groupName": "",
    "companiesHouseNumber": 71439105,
    "businessArea": "environmental-health",
    "legalEntityType": "cio",
    "address": {
        "line1": "86 Ridgewood Place",
        "town": "Mathews",
        "postcode": "NV6 6EP"
    }
},
{
    "legalName": "Cosmosis",
    "tradingName": "Cosmosis",
    "groupName": "",
    "companiesHouseNumber": 93590587,
    "businessArea": "health-and-safety",
    "legalEntityType": "cic",
    "address": {
        "line1": "94 Humboldt Street",
        "town": "Rowe",
        "postcode": "TL1 7ZC"
    }
},
{
    "legalName": "Keeg",
    "tradingName": "Keeg",
    "groupName": "",
    "companiesHouseNumber": 70597819,
    "businessArea": "fire-safety",
    "legalEntityType": "cic",
    "address": {
        "line1": "81 Erasmus Street",
        "town": "Sandston",
        "postcode": "VS9 4BW"
    }
},
{
    "legalName": "Fortean",
    "tradingName": "Fortean",
    "groupName": "",
    "companiesHouseNumber": 40725771,
    "businessArea": "environmental-health",
    "legalEntityType": "partnership",
    "address": {
        "line1": "22 Ebony Court",
        "town": "Efland",
        "postcode": "RV5 3PR"
    }
},
{
    "legalName": "Imperium",
    "tradingName": "Imperium",
    "groupName": "",
    "companiesHouseNumber": 23646547,
    "businessArea": "environmental-health",
    "legalEntityType": "cio",
    "address": {
        "line1": "62 Garden Street",
        "town": "Belfair",
        "postcode": "VU9 7ZC"
    }
},
{
    "legalName": "Danja",
    "tradingName": "Danja",
    "groupName": "",
    "companiesHouseNumber": 21858819,
    "businessArea": "explosives-licensing",
    "legalEntityType": "bencom",
    "address": {
        "line1": "27 Indiana Place",
        "town": "Morningside",
        "postcode": "AO6 2OL"
    }
},
{
    "legalName": "Cormoran",
    "tradingName": "Cormoran",
    "groupName": "",
    "companiesHouseNumber": 67291429,
    "businessArea": "fire-safety",
    "legalEntityType": "friendly-society",
    "address": {
        "line1": "23 Kent Street",
        "town": "Guilford",
        "postcode": "XN4 6UM"
    }
},
{
    "legalName": "Diginetic",
    "tradingName": "",
    "groupName": "",
    "companiesHouseNumber": 30436022,
    "businessArea": "licensing",
    "legalEntityType": "unincorporated-association",
    "address": {
        "line1": "13 Vanderbilt Street",
        "town": "Harrison",
        "postcode": "ML8 4OH"
    }
},
{
    "legalName": "Virxo",
    "tradingName": "",
    "groupName": "",
    "companiesHouseNumber": 25662207,
    "businessArea": "licensing",
    "legalEntityType": "partnership",
    "address": {
        "line1": "4 Chester Avenue",
        "town": "Lydia",
        "postcode": "KO9 4SX"
    }
},
{
    "legalName": "Sureplex",
    "tradingName": "",
    "groupName": "",
    "companiesHouseNumber": 35081820,
    "businessArea": "explosives-licensing",
    "legalEntityType": "trust",
    "address": {
        "line1": "93 Melba Court",
        "town": "Collins",
        "postcode": "SD9 5VX"
    }
},
{
    "legalName": "Sultraxin",
    "tradingName": "",
    "groupName": "",
    "companiesHouseNumber": 73642802,
    "businessArea": "fire-safety",
    "legalEntityType": "llp",
    "address": {
        "line1": "37 Seigel Court",
        "town": "Magnolia",
        "postcode": "SN1 5ZV"
    }
},
{
    "legalName": "Aquazure",
    "tradingName": "",
    "groupName": "",
    "companiesHouseNumber": 72539976,
    "businessArea": "health-and-safety",
    "legalEntityType": "limited-company",
    "address": {
        "line1": "89 Croton Loop",
        "town": "Innsbrook",
        "postcode": "KW8 0GU"
    }
},
{
    "legalName": "Recritube",
    "tradingName": "",
    "groupName": "",
    "companiesHouseNumber": 70321806,
    "businessArea": "licensing",
    "legalEntityType": "bencom",
    "address": {
        "line1": "25 Crown Street",
        "town": "Cochranville",
        "postcode": "QE7 7GE"
    }
},
{
    "legalName": "Venoflex",
    "tradingName": "",
    "groupName": "",
    "companiesHouseNumber": 16959164,
    "businessArea": "explosives-licensing",
    "legalEntityType": "llp",
    "address": {
        "line1": "71 Metrotech Courtr",
        "town": "Tioga",
        "postcode": "OD1 7SA"
    }
},
{
    "legalName": "Orbin",
    "tradingName": "",
    "groupName": "",
    "companiesHouseNumber": 15015722,
    "businessArea": "fire-safety",
    "legalEntityType": "partnership",
    "address": {
        "line1": "38 Grand Avenue",
        "town": "Advance",
        "postcode": "VJ7 1MQ"
    }
},
{
    "legalName": "Daisu",
    "tradingName": "",
    "groupName": "",
    "companiesHouseNumber": 56013053,
    "businessArea": "fire-safety",
    "legalEntityType": "limited-company",
    "address": {
        "line1": "22 Landis Court",
        "town": "Waumandee",
        "postcode": "SG8 4QM"
    }
},
{
    "legalName": "Medmex",
    "tradingName": "",
    "groupName": "",
    "companiesHouseNumber": 29768863,
    "businessArea": "health-and-safety",
    "legalEntityType": "bencom",
    "address": {
        "line1": "65 Varick Avenue",
        "town": "Dola",
        "postcode": "OV0 4BR"
    }
},
{
    "legalName": "Zoid",
    "tradingName": "",
    "groupName": "",
    "companiesHouseNumber": 85526266,
    "businessArea": "fire-safety",
    "legalEntityType": "cic",
    "address": {
        "line1": "87 Maple Avenue",
        "town": "Muir",
        "postcode": "XB3 8YF"
    }
},
{
    "legalName": "Orboid",
    "tradingName": "",
    "groupName": "",
    "companiesHouseNumber": 39216341,
    "businessArea": "health-and-safety",
    "legalEntityType": "friendly-society",
    "address": {
        "line1": "15 Conklin Avenue",
        "town": "Manila",
        "postcode": "GX4 2HM"
    }
},
{
    "legalName": "Viasia",
    "tradingName": "",
    "groupName": "",
    "companiesHouseNumber": 11861079,
    "businessArea": "trading-standards",
    "legalEntityType": "llp",
    "address": {
        "line1": "27 Harwood Place",
        "town": "Caron",
        "postcode": "OR4 3VM"
    }
},
{
    "legalName": "Iplax",
    "tradingName": "",
    "groupName": "",
    "companiesHouseNumber": 36734524,
    "businessArea": "fire-safety",
    "legalEntityType": "unincorporated-association",
    "address": {
        "line1": "24 Brigham Street",
        "town": "Fillmore",
        "postcode": "JQ2 7TN"
    }
},
{
    "legalName": "Pearlesex",
    "tradingName": "",
    "groupName": "",
    "companiesHouseNumber": 34555585,
    "businessArea": "health-and-safety",
    "legalEntityType": "credit-union",
    "address": {
        "line1": "51 Lamont Court",
        "town": "Gorst",
        "postcode": "XC2 3YT"
    }
},
{
    "legalName": "Billmed",
    "tradingName": "",
    "groupName": "",
    "companiesHouseNumber": 71905176,
    "businessArea": "petrol-storage",
    "legalEntityType": "partnership",
    "address": {
        "line1": "100 Havemeyer Street",
        "town": "Greer",
        "postcode": "AB5 0CP"
    }
},
{
    "legalName": "Bulljuice",
    "tradingName": "",
    "groupName": "",
    "companiesHouseNumber": 93656195,
    "businessArea": "petrol-storage",
    "legalEntityType": "cic",
    "address": {
        "line1": "62 Legion Street",
        "town": "Staples",
        "postcode": "YD3 2AF"
    }
},
{
    "legalName": "Solgan",
    "tradingName": "",
    "groupName": "",
    "companiesHouseNumber": 19378151,
    "businessArea": "environmental-health",
    "legalEntityType": "limited-partner",
    "address": {
        "line1": "51 Decatur Street",
        "town": "Rivereno",
        "postcode": "DA8 0EC"
    }
},
{
    "legalName": "Assistix",
    "tradingName": "",
    "groupName": "",
    "companiesHouseNumber": 62811154,
    "businessArea": "licensing",
    "legalEntityType": "limited-company",
    "address": {
        "line1": "4 Winthrop Street",
        "town": "Gila",
        "postcode": "RY1 3EJ"
    }
},
{
    "legalName": "Corepan",
    "tradingName": "",
    "groupName": "",
    "companiesHouseNumber": 97078985,
    "businessArea": "explosives-licensing",
    "legalEntityType": "trust",
    "address": {
        "line1": "59 Oxford Street",
        "town": "Yonah",
        "postcode": "RX9 0GL"
    }
},
{
    "legalName": "Futurity",
    "tradingName": "",
    "groupName": "",
    "companiesHouseNumber": 42478953,
    "businessArea": "licensing",
    "legalEntityType": "building-society",
    "address": {
        "line1": "64 Jardine Place",
        "town": "Grimsley",
        "postcode": "CK1 6SZ"
    }
},
{
    "legalName": "Digigene",
    "tradingName": "",
    "groupName": "",
    "companiesHouseNumber": 69267760,
    "businessArea": "licensing",
    "legalEntityType": "building-society",
    "address": {
        "line1": "32 Church Lane",
        "town": "Takilma",
        "postcode": "XE3 5PM"
    }
},
{
    "legalName": "Bunga",
    "tradingName": "",
    "groupName": "",
    "companiesHouseNumber": 86581251,
    "businessArea": "trading-standards",
    "legalEntityType": "bencom",
    "address": {
        "line1": "73 Balfour Place",
        "town": "Grenelefe",
        "postcode": "OK8 4TJ"
    }
},
{
    "legalName": "Kog",
    "tradingName": "",
    "groupName": "",
    "companiesHouseNumber": 66968327,
    "businessArea": "petrol-storage",
    "legalEntityType": "credit-union",
    "address": {
        "line1": "19 Evans Street",
        "town": "Calpine",
        "postcode": "OC5 6VM"
    }
},
{
    "legalName": "Extremo",
    "tradingName": "",
    "groupName": "",
    "companiesHouseNumber": 42190534,
    "businessArea": "trading-standards",
    "legalEntityType": "unincorporated-association",
    "address": {
        "line1": "61 Minna Street",
        "town": "Remington",
        "postcode": "XI0 8ZO"
    }
},
{
    "legalName": "Zanilla",
    "tradingName": "",
    "groupName": "",
    "companiesHouseNumber": 26802302,
    "businessArea": "explosives-licensing",
    "legalEntityType": "building-society",
    "address": {
        "line1": "75 Eldert Lane",
        "town": "Bancroft",
        "postcode": "BZ1 8GP"
    }
},
{
    "legalName": "Geekfarm",
    "tradingName": "",
    "groupName": "",
    "companiesHouseNumber": 42617903,
    "businessArea": "trading-standards",
    "legalEntityType": "unincorporated-association",
    "address": {
        "line1": "35 Belmont Avenue",
        "town": "Murillo",
        "postcode": "DD3 3RJ"
    }
},
{
    "legalName": "Kiosk",
    "tradingName": "",
    "groupName": "",
    "companiesHouseNumber": 31073885,
    "businessArea": "trading-standards",
    "legalEntityType": "sole-trader",
    "address": {
        "line1": "20 Sunnyside Avenue",
        "town": "Corinne",
        "postcode": "VI3 6LY"
    }
},
{
    "legalName": "Ozean",
    "tradingName": "",
    "groupName": "",
    "companiesHouseNumber": 63644895,
    "businessArea": "trading-standards",
    "legalEntityType": "friendly-society",
    "address": {
        "line1": "62 Canton Court",
        "town": "Carlton",
        "postcode": "GL5 5BD"
    }
},
{
    "legalName": "Quarx",
    "tradingName": "",
    "groupName": "",
    "companiesHouseNumber": 53729647,
    "businessArea": "fire-safety",
    "legalEntityType": "unincorporated-association",
    "address": {
        "line1": "95 Fairview Place",
        "town": "Tyro",
        "postcode": "JU8 8WL"
    }
},
{
    "legalName": "Supportal",
    "tradingName": "",
    "groupName": "",
    "companiesHouseNumber": 81073631,
    "businessArea": "petrol-storage",
    "legalEntityType": "building-society",
    "address": {
        "line1": "71 Middleton Street",
        "town": "Vaughn",
        "postcode": "VU2 0UN"
    }
},
{
    "legalName": "Apexia",
    "tradingName": "",
    "groupName": "",
    "companiesHouseNumber": 39042257,
    "businessArea": "explosives-licensing",
    "legalEntityType": "cio",
    "address": {
        "line1": "59 George Street",
        "town": "Vernon",
        "postcode": "DG7 5FH"
    }
},
{
    "legalName": "Emtrak",
    "tradingName": "",
    "groupName": "",
    "companiesHouseNumber": 83711435,
    "businessArea": "licensing",
    "legalEntityType": "bencom",
    "address": {
        "line1": "64 Cyrus Avenue",
        "town": "Linganore",
        "postcode": "YE4 0SH"
    }
},
{
    "legalName": "Pawnagra",
    "tradingName": "",
    "groupName": "",
    "companiesHouseNumber": 67770683,
    "businessArea": "explosives-licensing",
    "legalEntityType": "bencom",
    "address": {
        "line1": "44 Dahl Court",
        "town": "Barronett",
        "postcode": "PG4 9PA"
    }
},
{
    "legalName": "Zuvy",
    "tradingName": "",
    "groupName": "",
    "companiesHouseNumber": 34380208,
    "businessArea": "trading-standards",
    "legalEntityType": "credit-union",
    "address": {
        "line1": "81 Berry Street",
        "town": "Mammoth",
        "postcode": "EJ1 5JL"
    }
},
{
    "legalName": "Sulfax",
    "tradingName": "",
    "groupName": "",
    "companiesHouseNumber": 62237593,
    "businessArea": "health-and-safety",
    "legalEntityType": "llp",
    "address": {
        "line1": "10 Dewey Place",
        "town": "Calverton",
        "postcode": "PE4 9MV"
    }
},
{
    "legalName": "Glasstep",
    "tradingName": "",
    "groupName": "",
    "companiesHouseNumber": 75121866,
    "businessArea": "fire-safety",
    "legalEntityType": "bencom",
    "address": {
        "line1": "34 Bryant Street",
        "town": "Ona",
        "postcode": "AF8 2MF"
    }
},
{
    "legalName": "Cedward",
    "tradingName": "",
    "groupName": "",
    "companiesHouseNumber": 38216341,
    "businessArea": "petrol-storage",
    "legalEntityType": "sole-trader",
    "address": {
        "line1": "86 Willmohr Street",
        "town": "Delshire",
        "postcode": "GT6 1TS"
    }
},
{
    "legalName": "Pathways",
    "tradingName": "",
    "groupName": "",
    "companiesHouseNumber": 95335788,
    "businessArea": "trading-standards",
    "legalEntityType": "partnership",
    "address": {
        "line1": "15 Granite Street",
        "town": "Emison",
        "postcode": "ST0 4SK"
    }
},
{
    "legalName": "Isopop",
    "tradingName": "",
    "groupName": "",
    "companiesHouseNumber": 33755621,
    "businessArea": "health-and-safety",
    "legalEntityType": "cic",
    "address": {
        "line1": "25 Huron Street",
        "town": "Dixonville",
        "postcode": "XE0 6IZ"
    }
},
{
    "legalName": "Conferia",
    "tradingName": "",
    "groupName": "",
    "companiesHouseNumber": 92598001,
    "businessArea": "explosives-licensing",
    "legalEntityType": "bencom",
    "address": {
        "line1": "24 Butler Street",
        "town": "Brandermill",
        "postcode": "DD5 9VX"
    }
},
{
    "legalName": "Newcube",
    "tradingName": "",
    "groupName": "",
    "companiesHouseNumber": 65892498,
    "businessArea": "explosives-licensing",
    "legalEntityType": "credit-union",
    "address": {
        "line1": "56 Emerald Street",
        "town": "Stagecoach",
        "postcode": "II1 5WE"
    }
},
{
    "legalName": "Joviold",
    "tradingName": "",
    "groupName": "",
    "companiesHouseNumber": 35367052,
    "businessArea": "petrol-storage",
    "legalEntityType": "llp",
    "address": {
        "line1": "13 Kenmore Terrace",
        "town": "Ezel",
        "postcode": "PU2 7XC"
    }
},
{
    "legalName": "Caxt",
    "tradingName": "",
    "groupName": "",
    "companiesHouseNumber": 51222421,
    "businessArea": "explosives-licensing",
    "legalEntityType": "cio",
    "address": {
        "line1": "41 Glenmore Avenue",
        "town": "Haring",
        "postcode": "OW0 5LP"
    }
},
{
    "legalName": "Pyramax",
    "tradingName": "",
    "groupName": "",
    "companiesHouseNumber": 54436837,
    "businessArea": "licensing",
    "legalEntityType": "friendly-society",
    "address": {
        "line1": "88 Newton Street",
        "town": "Brownsville",
        "postcode": "RT9 8PV"
    }
},
{
    "legalName": "Liquidoc",
    "tradingName": "",
    "groupName": "",
    "companiesHouseNumber": 25643942,
    "businessArea": "petrol-storage",
    "legalEntityType": "sole-trader",
    "address": {
        "line1": "66 Olive Street",
        "town": "Boykin",
        "postcode": "LG5 9VH"
    }
},
{
    "legalName": "Verbus",
    "tradingName": "",
    "groupName": "",
    "companiesHouseNumber": 27348449,
    "businessArea": "explosives-licensing",
    "legalEntityType": "credit-union",
    "address": {
        "line1": "1 Norfolk Street",
        "town": "Sidman",
        "postcode": "IL1 0JL"
    }
},
{
    "legalName": "Orbalix",
    "tradingName": "",
    "groupName": "",
    "companiesHouseNumber": 60109989,
    "businessArea": "health-and-safety",
    "legalEntityType": "bencom",
    "address": {
        "line1": "25 College Place",
        "town": "Coaldale",
        "postcode": "PT4 4FF"
    }
},
{
    "legalName": "Zerology",
    "tradingName": "",
    "groupName": "",
    "companiesHouseNumber": 67287740,
    "businessArea": "fire-safety",
    "legalEntityType": "building-society",
    "address": {
        "line1": "73 Turnbull Avenue",
        "town": "Corriganville",
        "postcode": "NP3 2HW"
    }
},
{
    "legalName": "Geekola",
    "tradingName": "",
    "groupName": "",
    "companiesHouseNumber": 50427722,
    "businessArea": "fire-safety",
    "legalEntityType": "cic",
    "address": {
        "line1": "4 Everett Avenue",
        "town": "Conestoga",
        "postcode": "KT9 0VX"
    }
},
{
    "legalName": "Quiltigen",
    "tradingName": "",
    "groupName": "",
    "companiesHouseNumber": 63018232,
    "businessArea": "fire-safety",
    "legalEntityType": "partnership",
    "address": {
        "line1": "36 Bokee Court",
        "town": "Groveville",
        "postcode": "BG5 3FF"
    }
},
{
    "legalName": "Katakana",
    "tradingName": "",
    "groupName": "",
    "companiesHouseNumber": 74657655,
    "businessArea": "fire-safety",
    "legalEntityType": "co-op",
    "address": {
        "line1": "3 Malta Street",
        "town": "Durham",
        "postcode": "PE7 6GU"
    }
},
{
    "legalName": "Sloganaut",
    "tradingName": "",
    "groupName": "",
    "companiesHouseNumber": 20119937,
    "businessArea": "health-and-safety",
    "legalEntityType": "sole-trader",
    "address": {
        "line1": "57 Lawn Court",
        "town": "Chical",
        "postcode": "NB6 5HP"
    }
},
{
    "legalName": "Aquasure",
    "tradingName": "",
    "groupName": "",
    "companiesHouseNumber": 49654477,
    "businessArea": "health-and-safety",
    "legalEntityType": "credit-union",
    "address": {
        "line1": "6 Amboy Street",
        "town": "Campo",
        "postcode": "VZ4 0EP"
    }
},
{
    "legalName": "Telequiet",
    "tradingName": "",
    "groupName": "",
    "companiesHouseNumber": 35863392,
    "businessArea": "explosives-licensing",
    "legalEntityType": "partnership",
    "address": {
        "line1": "95 Hendrix Street",
        "town": "Tilden",
        "postcode": "MI0 6BV"
    }
},
{
    "legalName": "Zolarex",
    "tradingName": "",
    "groupName": "",
    "companiesHouseNumber": 61433330,
    "businessArea": "environmental-health",
    "legalEntityType": "sole-trader",
    "address": {
        "line1": "5 Woods Place",
        "town": "Marysville",
        "postcode": "UW6 6FP"
    }
},
{
    "legalName": "Quonata",
    "tradingName": "",
    "groupName": "",
    "companiesHouseNumber": 50520270,
    "businessArea": "petrol-storage",
    "legalEntityType": "credit-union",
    "address": {
        "line1": "64 Seaview Court",
        "town": "Chicopee",
        "postcode": "SB9 2LW"
    }
},
{
    "legalName": "Geeky",
    "tradingName": "",
    "groupName": "",
    "companiesHouseNumber": 61730597,
    "businessArea": "health-and-safety",
    "legalEntityType": "cic",
    "address": {
        "line1": "25 Bennet Court",
        "town": "Welch",
        "postcode": "TX1 0VV"
    }
},
{
    "legalName": "Lunchpod",
    "tradingName": "",
    "groupName": "",
    "companiesHouseNumber": 72028569,
    "businessArea": "fire-safety",
    "legalEntityType": "partnership",
    "address": {
        "line1": "13 Flatbush Avenue",
        "town": "Hannasville",
        "postcode": "JW9 4XC"
    }
},
{
    "legalName": "Genesynk",
    "tradingName": "",
    "groupName": "",
    "companiesHouseNumber": 25835042,
    "businessArea": "trading-standards",
    "legalEntityType": "co-op",
    "address": {
        "line1": "47 Story Street",
        "town": "Evergreen",
        "postcode": "GW2 0WB"
    }
},
{
    "legalName": "Arctiq",
    "tradingName": "",
    "groupName": "",
    "companiesHouseNumber": 86427618,
    "businessArea": "explosives-licensing",
    "legalEntityType": "limited-company",
    "address": {
        "line1": "95 Gaylord Drive",
        "town": "Cherokee",
        "postcode": "UP2 0MV"
    }
},
{
    "legalName": "Bleendot",
    "tradingName": "",
    "groupName": "",
    "companiesHouseNumber": 77469920,
    "businessArea": "petrol-storage",
    "legalEntityType": "partnership",
    "address": {
        "line1": "48 Freeman Street",
        "town": "Mayfair",
        "postcode": "WK7 8DO"
    }
},
{
    "legalName": "Netplax",
    "tradingName": "",
    "groupName": "",
    "companiesHouseNumber": 57397260,
    "businessArea": "health-and-safety",
    "legalEntityType": "trust",
    "address": {
        "line1": "18 Stillwell Avenue",
        "town": "Aberdeen",
        "postcode": "IK3 9UJ"
    }
},
{
    "legalName": "Grainspot",
    "tradingName": "",
    "groupName": "",
    "companiesHouseNumber": 87357405,
    "businessArea": "licensing",
    "legalEntityType": "cio",
    "address": {
        "line1": "82 Gallatin Place",
        "town": "Marenisco",
        "postcode": "SI7 7DB"
    }
},
{
    "legalName": "Oatfarm",
    "tradingName": "",
    "groupName": "",
    "companiesHouseNumber": 35225150,
    "businessArea": "licensing",
    "legalEntityType": "limited-partner",
    "address": {
        "line1": "58 Stratford Road",
        "town": "Ruffin",
        "postcode": "JE7 6KP"
    }
},
{
    "legalName": "Ovium",
    "tradingName": "",
    "groupName": "",
    "companiesHouseNumber": 68169372,
    "businessArea": "fire-safety",
    "legalEntityType": "partnership",
    "address": {
        "line1": "82 Georgia Avenue",
        "town": "Edenburg",
        "postcode": "GR9 1BF"
    }
},
{
    "legalName": "Kangle",
    "tradingName": "",
    "groupName": "",
    "companiesHouseNumber": 20812639,
    "businessArea": "explosives-licensing",
    "legalEntityType": "friendly-society",
    "address": {
        "line1": "6 Hunterfly Place",
        "town": "Machias",
        "postcode": "NX8 0ZI"
    }
},
{
    "legalName": "Uberlux",
    "tradingName": "",
    "groupName": "",
    "companiesHouseNumber": 57278602,
    "businessArea": "fire-safety",
    "legalEntityType": "building-society",
    "address": {
        "line1": "38 Java Street",
        "town": "Belleview",
        "postcode": "BB4 5IL"
    }
},
{
    "legalName": "Skyplex",
    "tradingName": "",
    "groupName": "",
    "companiesHouseNumber": 64042418,
    "businessArea": "fire-safety",
    "legalEntityType": "trust",
    "address": {
        "line1": "8 Lott Street",
        "town": "Duryea",
        "postcode": "OI4 1NY"
    }
},
{
    "legalName": "Exospeed",
    "tradingName": "",
    "groupName": "",
    "companiesHouseNumber": 25549057,
    "businessArea": "environmental-health",
    "legalEntityType": "co-op",
    "address": {
        "line1": "96 Imlay Street",
        "town": "Hoehne",
        "postcode": "NL4 1TE"
    }
},
{
    "legalName": "Memora",
    "tradingName": "",
    "groupName": "",
    "companiesHouseNumber": 87510890,
    "businessArea": "petrol-storage",
    "legalEntityType": "llp",
    "address": {
        "line1": "22 Varanda Place",
        "town": "Shrewsbury",
        "postcode": "NR3 7GL"
    }
},
{
    "legalName": "Webiotic",
    "tradingName": "",
    "groupName": "",
    "companiesHouseNumber": 58012869,
    "businessArea": "environmental-health",
    "legalEntityType": "limited-company",
    "address": {
        "line1": "39 Congress Street",
        "town": "Germanton",
        "postcode": "XO8 3JW"
    }
},
{
    "legalName": "Zentry",
    "tradingName": "",
    "groupName": "",
    "companiesHouseNumber": 27859309,
    "businessArea": "trading-standards",
    "legalEntityType": "friendly-society",
    "address": {
        "line1": "37 Underhill Avenue",
        "town": "Cliffside",
        "postcode": "VA6 1LN"
    }
},
{
    "legalName": "Idetica",
    "tradingName": "",
    "groupName": "",
    "companiesHouseNumber": 28574692,
    "businessArea": "licensing",
    "legalEntityType": "llp",
    "address": {
        "line1": "47 Conselyea Street",
        "town": "Movico",
        "postcode": "EH8 3ZU"
    }
},
{
    "legalName": "Automon",
    "tradingName": "",
    "groupName": "",
    "companiesHouseNumber": 21685712,
    "businessArea": "explosives-licensing",
    "legalEntityType": "limited-partner",
    "address": {
        "line1": "72 Gerry Street",
        "town": "Walker",
        "postcode": "CM0 5FD"
    }
},
{
    "legalName": "Qnekt",
    "tradingName": "",
    "groupName": "",
    "companiesHouseNumber": 55542080,
    "businessArea": "petrol-storage",
    "legalEntityType": "cic",
    "address": {
        "line1": "99 Beverly Road",
        "town": "Snowville",
        "postcode": "UK1 0GQ"
    }
},
{
    "legalName": "Extragene",
    "tradingName": "",
    "groupName": "",
    "companiesHouseNumber": 56554872,
    "businessArea": "environmental-health",
    "legalEntityType": "limited-company",
    "address": {
        "line1": "69 Debevoise Avenue",
        "town": "Orason",
        "postcode": "DL4 8VX"
    }
},
{
    "legalName": "Cablam",
    "tradingName": "",
    "groupName": "",
    "companiesHouseNumber": 57044481,
    "businessArea": "licensing",
    "legalEntityType": "trust",
    "address": {
        "line1": "37 Verona Place",
        "town": "Glasgow",
        "postcode": "ES5 1WH"
    }
},
{
    "legalName": "Callflex",
    "tradingName": "",
    "groupName": "",
    "companiesHouseNumber": 10969493,
    "businessArea": "licensing",
    "legalEntityType": "sole-trader",
    "address": {
        "line1": "99 Pitkin Avenue",
        "town": "Mansfield",
        "postcode": "NS9 9YF"
    }
},
{
    "legalName": "Artworlds",
    "tradingName": "",
    "groupName": "",
    "companiesHouseNumber": 42021996,
    "businessArea": "fire-safety",
    "legalEntityType": "limited-company",
    "address": {
        "line1": "3 Blake Avenue",
        "town": "Buxton",
        "postcode": "RY4 5UI"
    }
},
{
    "legalName": "Barkarama",
    "tradingName": "",
    "groupName": "",
    "companiesHouseNumber": 19341592,
    "businessArea": "trading-standards",
    "legalEntityType": "unincorporated-association",
    "address": {
        "line1": "49 Keap Street",
        "town": "Trinway",
        "postcode": "CT0 1CW"
    }
},
{
    "legalName": "Digifad",
    "tradingName": "",
    "groupName": "",
    "companiesHouseNumber": 46679835,
    "businessArea": "explosives-licensing",
    "legalEntityType": "bencom",
    "address": {
        "line1": "9 Downing Street",
        "town": "Leyner",
        "postcode": "RK5 0MW"
    }
},
{
    "legalName": "Spherix",
    "tradingName": "",
    "groupName": "",
    "companiesHouseNumber": 93711428,
    "businessArea": "licensing",
    "legalEntityType": "trust",
    "address": {
        "line1": "61 Vine Street",
        "town": "Sunnyside",
        "postcode": "DU9 5PF"
    }
},
{
    "legalName": "Nipaz",
    "tradingName": "",
    "groupName": "",
    "companiesHouseNumber": 27218381,
    "businessArea": "explosives-licensing",
    "legalEntityType": "cic",
    "address": {
        "line1": "29 Homecrest Avenue",
        "town": "Levant",
        "postcode": "AP1 4VD"
    }
},
{
    "legalName": "Roboid",
    "tradingName": "",
    "groupName": "",
    "companiesHouseNumber": 58633793,
    "businessArea": "petrol-storage",
    "legalEntityType": "unincorporated-association",
    "address": {
        "line1": "53 Clinton Street",
        "town": "Woodruff",
        "postcode": "IA3 5OO"
    }
},
{
    "legalName": "Rubadub",
    "tradingName": "",
    "groupName": "",
    "companiesHouseNumber": 71347595,
    "businessArea": "trading-standards",
    "legalEntityType": "unincorporated-association",
    "address": {
        "line1": "34 Kensington Street",
        "town": "Grazierville",
        "postcode": "EY8 7QL"
    }
},
{
    "legalName": "Interfind",
    "tradingName": "",
    "groupName": "",
    "companiesHouseNumber": 67754668,
    "businessArea": "petrol-storage",
    "legalEntityType": "sole-trader",
    "address": {
        "line1": "97 Adler Place",
        "town": "Jacksonwald",
        "postcode": "VF0 5RB"
    }
},
{
    "legalName": "Zentury",
    "tradingName": "",
    "groupName": "",
    "companiesHouseNumber": 77109488,
    "businessArea": "licensing",
    "legalEntityType": "cio",
    "address": {
        "line1": "6 Duryea Court",
        "town": "Albany",
        "postcode": "YX6 8JF"
    }
},
{
    "legalName": "Magnafone",
    "tradingName": "",
    "groupName": "",
    "companiesHouseNumber": 98825478,
    "businessArea": "explosives-licensing",
    "legalEntityType": "bencom",
    "address": {
        "line1": "99 Bridge Street",
        "town": "Tuttle",
        "postcode": "HA8 9EB"
    }
},
{
    "legalName": "Softmicro",
    "tradingName": "",
    "groupName": "",
    "companiesHouseNumber": 57187990,
    "businessArea": "health-and-safety",
    "legalEntityType": "limited-company",
    "address": {
        "line1": "100 Bushwick Court",
        "town": "Disautel",
        "postcode": "ZM6 5HR"
    }
},
{
    "legalName": "Irack",
    "tradingName": "",
    "groupName": "",
    "companiesHouseNumber": 44137010,
    "businessArea": "fire-safety",
    "legalEntityType": "cio",
    "address": {
        "line1": "55 Bond Street",
        "town": "Goochland",
        "postcode": "VS0 1BM"
    }
},
{
    "legalName": "Visalia",
    "tradingName": "",
    "groupName": "",
    "companiesHouseNumber": 68081195,
    "businessArea": "licensing",
    "legalEntityType": "limited-company",
    "address": {
        "line1": "67 Quay Street",
        "town": "Chesterfield",
        "postcode": "IG4 5AH"
    }
},
{
    "legalName": "Amril",
    "tradingName": "",
    "groupName": "",
    "companiesHouseNumber": 56816496,
    "businessArea": "licensing",
    "legalEntityType": "limited-company",
    "address": {
        "line1": "22 Albemarle Terrace",
        "town": "Savannah",
        "postcode": "RN0 6SW"
    }
},
{
    "legalName": "Typhonica",
    "tradingName": "",
    "groupName": "",
    "companiesHouseNumber": 77940393,
    "businessArea": "explosives-licensing",
    "legalEntityType": "cio",
    "address": {
        "line1": "81 Boulevard Court",
        "town": "Independence",
        "postcode": "NP0 8CC"
    }
},
{
    "legalName": "Grok",
    "tradingName": "",
    "groupName": "",
    "companiesHouseNumber": 32430108,
    "businessArea": "trading-standards",
    "legalEntityType": "co-op",
    "address": {
        "line1": "75 Everit Street",
        "town": "Hollymead",
        "postcode": "TL7 3ZL"
    }
},
{
    "legalName": "Nixelt",
    "tradingName": "",
    "groupName": "",
    "companiesHouseNumber": 54747304,
    "businessArea": "fire-safety",
    "legalEntityType": "trust",
    "address": {
        "line1": "71 Elton Street",
        "town": "Matheny",
        "postcode": "XT2 1WI"
    }
},
{
    "legalName": "Paprikut",
    "tradingName": "",
    "groupName": "",
    "companiesHouseNumber": 43868960,
    "businessArea": "trading-standards",
    "legalEntityType": "cio",
    "address": {
        "line1": "94 Cook Street",
        "town": "Emory",
        "postcode": "QK6 2JG"
    }
},
{
    "legalName": "Progenex",
    "tradingName": "",
    "groupName": "",
    "companiesHouseNumber": 81336219,
    "businessArea": "health-and-safety",
    "legalEntityType": "partnership",
    "address": {
        "line1": "76 Baltic Street",
        "town": "Westphalia",
        "postcode": "VY6 6LY"
    }
},
{
    "legalName": "Cosmetex",
    "tradingName": "",
    "groupName": "",
    "companiesHouseNumber": 74630977,
    "businessArea": "petrol-storage",
    "legalEntityType": "sole-trader",
    "address": {
        "line1": "34 Conduit Boulevard",
        "town": "Eden",
        "postcode": "ZR4 9WZ"
    }
},
{
    "legalName": "Biotica",
    "tradingName": "",
    "groupName": "",
    "companiesHouseNumber": 63688066,
    "businessArea": "fire-safety",
    "legalEntityType": "cio",
    "address": {
        "line1": "92 Classon Avenue",
        "town": "Joes",
        "postcode": "HB3 0VQ"
    }
},
{
    "legalName": "Phormula",
    "tradingName": "",
    "groupName": "",
    "companiesHouseNumber": 66960000,
    "businessArea": "fire-safety",
    "legalEntityType": "limited-company",
    "address": {
        "line1": "87 Pioneer Street",
        "town": "Beason",
        "postcode": "EG3 3YI"
    }
},
{
    "legalName": "Hometown",
    "tradingName": "",
    "groupName": "",
    "companiesHouseNumber": 64473419,
    "businessArea": "fire-safety",
    "legalEntityType": "bencom",
    "address": {
        "line1": "71 Estate Road",
        "town": "Jenkinsville",
        "postcode": "NI1 1GP"
    }
},
{
    "legalName": "Musaphics",
    "tradingName": "",
    "groupName": "",
    "companiesHouseNumber": 81571532,
    "businessArea": "licensing",
    "legalEntityType": "cio",
    "address": {
        "line1": "55 Holmes Lane",
        "town": "Garnet",
        "postcode": "IN6 0XV"
    }
},
{
    "legalName": "Kegular",
    "tradingName": "",
    "groupName": "",
    "companiesHouseNumber": 14947866,
    "businessArea": "petrol-storage",
    "legalEntityType": "co-op",
    "address": {
        "line1": "73 Hemlock Street",
        "town": "Vale",
        "postcode": "WM1 3HS"
    }
},
{
    "legalName": "Injoy",
    "tradingName": "",
    "groupName": "",
    "companiesHouseNumber": 76082636,
    "businessArea": "licensing",
    "legalEntityType": "cic",
    "address": {
        "line1": "3 Rockwell Place",
        "town": "Floriston",
        "postcode": "MQ1 8HO"
    }
},
{
    "legalName": "Harmoney",
    "tradingName": "",
    "groupName": "",
    "companiesHouseNumber": 91812089,
    "businessArea": "explosives-licensing",
    "legalEntityType": "cic",
    "address": {
        "line1": "17 Lyme Avenue",
        "town": "Oley",
        "postcode": "MY0 6ND"
    }
},
{
    "legalName": "Letpro",
    "tradingName": "",
    "groupName": "",
    "companiesHouseNumber": 26537003,
    "businessArea": "petrol-storage",
    "legalEntityType": "partnership",
    "address": {
        "line1": "62 Rutland Road",
        "town": "Baden",
        "postcode": "UI6 1JA"
    }
},
{
    "legalName": "Realysis",
    "tradingName": "",
    "groupName": "",
    "companiesHouseNumber": 51876558,
    "businessArea": "petrol-storage",
    "legalEntityType": "cio",
    "address": {
        "line1": "4 Strong Place",
        "town": "Trexlertown",
        "postcode": "HD6 8YV"
    }
},
{
    "legalName": "Valreda",
    "tradingName": "",
    "groupName": "",
    "companiesHouseNumber": 32049864,
    "businessArea": "licensing",
    "legalEntityType": "unincorporated-association",
    "address": {
        "line1": "32 Degraw Street",
        "town": "Gadsden",
        "postcode": "DO8 8KF"
    }
},
{
    "legalName": "Opticall",
    "tradingName": "",
    "groupName": "",
    "companiesHouseNumber": 53915614,
    "businessArea": "explosives-licensing",
    "legalEntityType": "cio",
    "address": {
        "line1": "58 Veterans Avenue",
        "town": "Beaulieu",
        "postcode": "FV0 8KG"
    }
},
{
    "legalName": "Rockabye",
    "tradingName": "",
    "groupName": "",
    "companiesHouseNumber": 71727136,
    "businessArea": "licensing",
    "legalEntityType": "co-op",
    "address": {
        "line1": "69 Beekman Place",
        "town": "Diaperville",
        "postcode": "SS0 5OR"
    }
},
{
    "legalName": "Geekwagon",
    "tradingName": "",
    "groupName": "",
    "companiesHouseNumber": 15650618,
    "businessArea": "fire-safety",
    "legalEntityType": "bencom",
    "address": {
        "line1": "6 Bartlett Place",
        "town": "Indio",
        "postcode": "DH2 8FL"
    }
},
{
    "legalName": "Hawkster",
    "tradingName": "",
    "groupName": "",
    "companiesHouseNumber": 67071110,
    "businessArea": "health-and-safety",
    "legalEntityType": "partnership",
    "address": {
        "line1": "24 Pierrepont Place",
        "town": "Siglerville",
        "postcode": "QZ9 0TJ"
    }
},
{
    "legalName": "Sunclipse",
    "tradingName": "",
    "groupName": "",
    "companiesHouseNumber": 57277237,
    "businessArea": "fire-safety",
    "legalEntityType": "friendly-society",
    "address": {
        "line1": "83 Lincoln Terrace",
        "town": "Herlong",
        "postcode": "CW3 2HI"
    }
},
{
    "legalName": "Geoform",
    "tradingName": "",
    "groupName": "",
    "companiesHouseNumber": 39296764,
    "businessArea": "health-and-safety",
    "legalEntityType": "sole-trader",
    "address": {
        "line1": "63 Milton Street",
        "town": "Darlington",
        "postcode": "OC5 7IH"
    }
},
{
    "legalName": "Xanide",
    "tradingName": "",
    "groupName": "",
    "companiesHouseNumber": 64983341,
    "businessArea": "licensing",
    "legalEntityType": "credit-union",
    "address": {
        "line1": "20 Mayfair Drive",
        "town": "Jessie",
        "postcode": "ZX3 5FE"
    }
},
{
    "legalName": "Zolar",
    "tradingName": "",
    "groupName": "",
    "companiesHouseNumber": 86765974,
    "businessArea": "explosives-licensing",
    "legalEntityType": "partnership",
    "address": {
        "line1": "50 Carlton Avenue",
        "town": "Esmont",
        "postcode": "SH5 9IV"
    }
},
{
    "legalName": "Earthplex",
    "tradingName": "",
    "groupName": "",
    "companiesHouseNumber": 90523971,
    "businessArea": "explosives-licensing",
    "legalEntityType": "trust",
    "address": {
        "line1": "10 Banker Street",
        "town": "Zortman",
        "postcode": "PO7 6BG"
    }
},
{
    "legalName": "Kneedles",
    "tradingName": "",
    "groupName": "",
    "companiesHouseNumber": 14858677,
    "businessArea": "health-and-safety",
    "legalEntityType": "trust",
    "address": {
        "line1": "34 Seagate Terrace",
        "town": "Wescosville",
        "postcode": "KP7 8SG"
    }
},
{
    "legalName": "Solaren",
    "tradingName": "",
    "groupName": "",
    "companiesHouseNumber": 48591139,
    "businessArea": "environmental-health",
    "legalEntityType": "limited-company",
    "address": {
        "line1": "48 Chapel Street",
        "town": "Cowiche",
        "postcode": "DP8 2AZ"
    }
},
{
    "legalName": "Atgen",
    "tradingName": "",
    "groupName": "",
    "companiesHouseNumber": 32502121,
    "businessArea": "environmental-health",
    "legalEntityType": "partnership",
    "address": {
        "line1": "94 Dakota Place",
        "town": "Lindcove",
        "postcode": "BA8 6OT"
    }
},
{
    "legalName": "Fibrodyne",
    "tradingName": "",
    "groupName": "",
    "companiesHouseNumber": 88874054,
    "businessArea": "fire-safety",
    "legalEntityType": "limited-company",
    "address": {
        "line1": "15 Provost Street",
        "town": "Elizaville",
        "postcode": "GC8 7LX"
    }
},
{
    "legalName": "Idego",
    "tradingName": "",
    "groupName": "",
    "companiesHouseNumber": 53903684,
    "businessArea": "environmental-health",
    "legalEntityType": "partnership",
    "address": {
        "line1": "99 Tampa Court",
        "town": "Dennard",
        "postcode": "YP2 8MO"
    }
},
{
    "legalName": "Zappix",
    "tradingName": "",
    "groupName": "",
    "companiesHouseNumber": 74642440,
    "businessArea": "trading-standards",
    "legalEntityType": "bencom",
    "address": {
        "line1": "83 Blake Court",
        "town": "Ribera",
        "postcode": "VO8 1DI"
    }
},
{
    "legalName": "Remotion",
    "tradingName": "",
    "groupName": "",
    "companiesHouseNumber": 38409050,
    "businessArea": "petrol-storage",
    "legalEntityType": "sole-trader",
    "address": {
        "line1": "89 Kenilworth Place",
        "town": "Hobucken",
        "postcode": "WI3 2OV"
    }
},
{
    "legalName": "Zytrax",
    "tradingName": "",
    "groupName": "",
    "companiesHouseNumber": 53064815,
    "businessArea": "explosives-licensing",
    "legalEntityType": "cic",
    "address": {
        "line1": "67 Colonial Road",
        "town": "Sharon",
        "postcode": "VK9 5IS"
    }
    },
    {
    "legalName": "Blurrybus",
    "tradingName": "",
    "groupName": "",
    "companiesHouseNumber": 60075750,
    "businessArea": "licensing",
    "legalEntityType": "sole-trader",
    "address": {
        "line1": "89 Manhattan Avenue",
        "town": "Macdona",
        "postcode": "WN3 2UA"
    }
},
{
    "legalName": "Uxmox",
    "tradingName": "",
    "groupName": "",
    "companiesHouseNumber": 97787599,
    "businessArea": "explosives-licensing",
    "legalEntityType": "friendly-society",
    "address": {
        "line1": "56 Morton Street",
        "town": "Wattsville",
        "postcode": "DE8 9ZT"
    }
},
{
    "legalName": "Quility",
    "tradingName": "",
    "groupName": "",
    "companiesHouseNumber": 63654274,
    "businessArea": "fire-safety",
    "legalEntityType": "trust",
    "address": {
        "line1": "48 Coffey Street",
        "town": "Alleghenyville",
        "postcode": "RS0 1AU"
    }
},
{
    "legalName": "Tasmania",
    "tradingName": "",
    "groupName": "",
    "companiesHouseNumber": 15363627,
    "businessArea": "fire-safety",
    "legalEntityType": "credit-union",
    "address": {
        "line1": "81 Applegate Court",
        "town": "Newkirk",
        "postcode": "MQ5 6WH"
    }
},
{
    "legalName": "Deviltoe",
    "tradingName": "",
    "groupName": "",
    "companiesHouseNumber": 98862462,
    "businessArea": "licensing",
    "legalEntityType": "friendly-society",
    "address": {
        "line1": "99 Preston Court",
        "town": "Grandview",
        "postcode": "ST4 2NP"
    }
},
{
    "legalName": "Tetratrex",
    "tradingName": "",
    "groupName": "",
    "companiesHouseNumber": 56072501,
    "businessArea": "licensing",
    "legalEntityType": "llp",
    "address": {
        "line1": "50 Bayview Avenue",
        "town": "Ypsilanti",
        "postcode": "MG6 0XS"
    }
},
{
    "legalName": "Intrawear",
    "tradingName": "",
    "groupName": "",
    "companiesHouseNumber": 83993143,
    "businessArea": "fire-safety",
    "legalEntityType": "sole-trader",
    "address": {
        "line1": "84 Williams Place",
        "town": "Jugtown",
        "postcode": "PR4 0FW"
    }
},
{
    "legalName": "Comfirm",
    "tradingName": "",
    "groupName": "",
    "companiesHouseNumber": 10776106,
    "businessArea": "health-and-safety",
    "legalEntityType": "trust",
    "address": {
        "line1": "82 Channel Avenue",
        "town": "Retsof",
        "postcode": "SO4 7TT"
    }
},
{
    "legalName": "Mazuda",
    "tradingName": "",
    "groupName": "",
    "companiesHouseNumber": 31753018,
    "businessArea": "environmental-health",
    "legalEntityType": "partnership",
    "address": {
        "line1": "20 Hanover Place",
        "town": "Oberlin",
        "postcode": "JB6 5UG"
    }
},
{
    "legalName": "Halap",
    "tradingName": "",
    "groupName": "",
    "companiesHouseNumber": 12797178,
    "businessArea": "licensing",
    "legalEntityType": "partnership",
    "address": {
        "line1": "41 Laurel Avenue",
        "town": "Dahlen",
        "postcode": "AW7 4GS"
    }
},
{
    "legalName": "Pearlessa",
    "tradingName": "",
    "groupName": "",
    "companiesHouseNumber": 90752527,
    "businessArea": "health-and-safety",
    "legalEntityType": "building-society",
    "address": {
        "line1": "32 Dwight Street",
        "town": "Rodman",
        "postcode": "PZ6 1ZE"
    }
},
{
    "legalName": "Repetwire",
    "tradingName": "",
    "groupName": "",
    "companiesHouseNumber": 79592418,
    "businessArea": "petrol-storage",
    "legalEntityType": "limited-partner",
    "address": {
        "line1": "95 Madeline Court",
        "town": "Bodega",
        "postcode": "ES2 5TJ"
    }
},
{
    "legalName": "Rodeology",
    "tradingName": "",
    "groupName": "",
    "companiesHouseNumber": 43191861,
    "businessArea": "health-and-safety",
    "legalEntityType": "building-society",
    "address": {
        "line1": "67 Highland Avenue",
        "town": "Hall",
        "postcode": "DU9 0GZ"
    }
},
{
    "legalName": "Omnigog",
    "tradingName": "",
    "groupName": "",
    "companiesHouseNumber": 96590212,
    "businessArea": "petrol-storage",
    "legalEntityType": "trust",
    "address": {
        "line1": "16 Ross Street",
        "town": "Healy",
        "postcode": "XJ7 2LP"
    }
},
{
    "legalName": "Splinx",
    "tradingName": "",
    "groupName": "",
    "companiesHouseNumber": 81823920,
    "businessArea": "environmental-health",
    "legalEntityType": "partnership",
    "address": {
        "line1": "68 Hastings Street",
        "town": "Bowie",
        "postcode": "CY7 7TJ"
    }
    }
]